LIME                    
1 62648U 25009AR  26068.73906781  .00013254  00000+0  47723-3 0  9995
2 62648  97.3985 151.4831 0001635  35.9029 324.2320 15.28703313 63766
STARLINK-36461          
1 67316U 26002M   26068.04591208  .00045577  00000+0  16544-2 0  9993
2 67316  43.0033 328.6278 0001564 266.7783  93.2890 15.27602407 11141
